{
  "type": "FeatureCollection",
  "features": [
    {
      "type": "Feature",
      "properties": {
        "norad_id": 29268,
        "name": "ARIRANG-2 (KOMPSAT-2)",
        "group": "resource",
        "lat": -58.46224841225282,
        "lon": -26.572261462035748,
        "alt_km": 687.6709284944654,
        "timestamp": "2025-12-03T10:52:57.106256+00:00",
        "meta_object_name": "ARIRANG-2 (KOMPSAT-2)",
        "meta_object_id": "2006-031A",
        "meta_epoch": "2025-12-03T05:07:18.750144",
        "meta_mean_motion": 14.64479555,
        "meta_eccentricity": 0.0014018,
        "meta_inclination": 97.8264,
        "meta_ra_of_asc_node": 166.1506,
        "meta_arg_of_pericenter": 340.6462,
        "meta_mean_anomaly": 74.1045,
        "meta_ephemeris_type": 0,
        "meta_classification_type": "U",
        "meta_norad_cat_id": 29268,
        "meta_element_set_no": 999,
        "meta_rev_at_epoch": 3279,
        "meta_bstar": 0.00011208,
        "meta_mean_motion_dot": 5.49e-06,
        "meta_mean_motion_ddot": 0,
        "tle_line1": "1 29268U 06031A   25337.21341146  .00000549  00000+0  11208-3 0  9991",
        "tle_line2": "2 29268  97.8264 166.1506 0014018 340.6462  74.1045 14.64479555 32791"
      },
      "geometry": {
        "type": "Point",
        "coordinates": [
          -26.572261462035748,
          -58.46224841225282
        ]
      }
    },
    {
      "type": "Feature",
      "properties": {
        "norad_id": 29709,
        "name": "LAPAN-TUBSAT",
        "group": "resource",
        "lat": -7.184871397982001,
        "lon": 146.3874946884764,
        "alt_km": 614.7246040608907,
        "timestamp": "2025-12-03T10:52:57.106268+00:00",
        "meta_object_name": "LAPAN-TUBSAT",
        "meta_object_id": "2007-001A",
        "meta_epoch": "2025-12-03T05:11:41.527104",
        "meta_mean_motion": 14.85646779,
        "meta_eccentricity": 0.0013588,
        "meta_inclination": 98.1252,
        "meta_ra_of_asc_node": 327.1776,
        "meta_arg_of_pericenter": 102.2927,
        "meta_mean_anomaly": 257.9809,
        "meta_ephemeris_type": 0,
        "meta_classification_type": "U",
        "meta_norad_cat_id": 29709,
        "meta_element_set_no": 999,
        "meta_rev_at_epoch": 2205,
        "meta_bstar": 0.00011737,
        "meta_mean_motion_dot": 9.61e-06,
        "meta_mean_motion_ddot": 0,
        "tle_line1": "1 29709U 07001A   25337.21645286  .00000961  00000+0  11737-3 0  9996",
        "tle_line2": "2 29709  98.1252 327.1776 0013588 102.2927 257.9809 14.85646779 22053"
      },
      "geometry": {
        "type": "Point",
        "coordinates": [
          146.3874946884764,
          -7.184871397982001
        ]
      }
    },
    {
      "type": "Feature",
      "properties": {
        "norad_id": 31113,
        "name": "HAIYANG-1B",
        "group": "resource",
        "lat": 78.34030391675151,
        "lon": -172.64443997703984,
        "alt_km": 772.5819426536,
        "timestamp": "2025-12-03T10:52:57.106279+00:00",
        "meta_object_name": "HAIYANG-1B",
        "meta_object_id": "2007-010A",
        "meta_epoch": "2025-12-02T22:40:46.164864",
        "meta_mean_motion": 14.30959624,
        "meta_eccentricity": 0.0014595,
        "meta_inclination": 98.3307,
        "meta_ra_of_asc_node": 321.6283,
        "meta_arg_of_pericenter": 65.0493,
        "meta_mean_anomaly": 295.2206,
        "meta_ephemeris_type": 0,
        "meta_classification_type": "U",
        "meta_norad_cat_id": 31113,
        "meta_element_set_no": 999,
        "meta_rev_at_epoch": 97256,
        "meta_bstar": 8.3528e-05,
        "meta_mean_motion_dot": 1.78e-06,
        "meta_mean_motion_ddot": 0,
        "tle_line1": "1 31113U 07010A   25336.94497876  .00000178  00000+0  83528-4 0  9995",
        "tle_line2": "2 31113  98.3307 321.6283 0014595  65.0493 295.2206 14.30959624972565"
      },
      "geometry": {
        "type": "Point",
        "coordinates": [
          -172.64443997703984,
          78.34030391675151
        ]
      }
    },
    {
      "type": "Feature",
      "properties": {
        "norad_id": 31598,
        "name": "COSMO-SKYMED 1",
        "group": "resource",
        "lat": 12.066787234435763,
        "lon": -15.510159155454852,
        "alt_km": 581.6232349869497,
        "timestamp": "2025-12-03T10:52:57.106303+00:00",
        "meta_object_name": "COSMO-SKYMED 1",
        "meta_object_id": "2007-023A",
        "meta_epoch": "2025-12-03T03:42:45.711936",
        "meta_mean_motion": 14.95652464,
        "meta_eccentricity": 0.0001454,
        "meta_inclination": 97.8843,
        "meta_ra_of_asc_node": 162.4917,
        "meta_arg_of_pericenter": 81.9285,
        "meta_mean_anomaly": 278.2101,
        "meta_ephemeris_type": 0,
        "meta_classification_type": "U",
        "meta_norad_cat_id": 31598,
        "meta_element_set_no": 999,
        "meta_rev_at_epoch": 47,
        "meta_bstar": 0.00044129,
        "meta_mean_motion_dot": 4.848e-05,
        "meta_mean_motion_ddot": 0,
        "tle_line1": "1 31598U 07023A   25337.15469574  .00004848  00000+0  44129-3 0  9995",
        "tle_line2": "2 31598  97.8843 162.4917 0001454  81.9285 278.2101 14.95652464   472"
      },
      "geometry": {
        "type": "Point",
        "coordinates": [
          -15.510159155454852,
          12.066787234435763
        ]
      }
    },
    {
      "type": "Feature",
      "properties": {
        "norad_id": 31698,
        "name": "TERRASAR-X",
        "group": "resource",
        "lat": 57.71631469163741,
        "lon": 174.91547771883168,
        "alt_km": 501.8237722266422,
        "timestamp": "2025-12-03T10:52:57.106324+00:00",
        "meta_object_name": "TERRASAR-X",
        "meta_object_id": "2007-026A",
        "meta_epoch": "2025-12-02T13:47:56.806656",
        "meta_mean_motion": 15.19154546,
        "meta_eccentricity": 0.0001916,
        "meta_inclination": 97.4445,
        "meta_ra_of_asc_node": 342.105,
        "meta_arg_of_pericenter": 86.6664,
        "meta_mean_anomaly": 273.4789,
        "meta_ephemeris_type": 0,
        "meta_classification_type": "U",
        "meta_norad_cat_id": 31698,
        "meta_element_set_no": 999,
        "meta_rev_at_epoch": 2337,
        "meta_bstar": 8.5350444e-05,
        "meta_mean_motion_dot": 1.726e-05,
        "meta_mean_motion_ddot": 0,
        "tle_line1": "1 31698U 07026A   25336.57496304  .00001726  00000+0  85350-4 0  9999",
        "tle_line2": "2 31698  97.4445 342.1050 0001916  86.6664 273.4789 15.19154546 23376"
      },
      "geometry": {
        "type": "Point",
        "coordinates": [
          174.91547771883168,
          57.71631469163741
        ]
      }
    },
    {
      "type": "Feature",
      "properties": {
        "norad_id": 32060,
        "name": "WORLDVIEW-1 (WV-1)",
        "group": "resource",
        "lat": -57.43180487241645,
        "lon": 106.78049488958285,
        "alt_km": 500.0403818052255,
        "timestamp": "2025-12-03T10:52:57.106342+00:00",
        "meta_object_name": "WORLDVIEW-1 (WV-1)",
        "meta_object_id": "2007-041A",
        "meta_epoch": "2025-12-03T01:41:06.902592",
        "meta_mean_motion": 15.24433285,
        "meta_eccentricity": 7.49e-05,
        "meta_inclination": 97.3837,
        "meta_ra_of_asc_node": 94.6892,
        "meta_arg_of_pericenter": 93.5568,
        "meta_mean_anomaly": 266.5755,
        "meta_ephemeris_type": 0,
        "meta_classification_type": "U",
        "meta_norad_cat_id": 32060,
        "meta_element_set_no": 999,
        "meta_rev_at_epoch": 1300,
        "meta_bstar": 0.0004855,
        "meta_mean_motion_dot": 0.0001185,
        "meta_mean_motion_ddot": 0,
        "tle_line1": "1 32060U 07041A   25337.07021878  .00011850  00000+0  48550-3 0  9995",
        "tle_line2": "2 32060  97.3837  94.6892 0000749  93.5568 266.5755 15.24433285 13001"
      },
      "geometry": {
        "type": "Point",
        "coordinates": [
          106.78049488958285,
          -57.43180487241645
        ]
      }
    },
    {
      "type": "Feature",
      "properties": {
        "norad_id": 32289,
        "name": "YAOGAN-3",
        "group": "resource",
        "lat": -33.422846572669606,
        "lon": 178.94712317530332,
        "alt_km": 605.5857083369901,
        "timestamp": "2025-12-03T10:52:57.106354+00:00",
        "meta_object_name": "YAOGAN-3",
        "meta_object_id": "2007-055A",
        "meta_epoch": "2025-12-03T05:05:25.949760",
        "meta_mean_motion": 14.89781073,
        "meta_eccentricity": 0.00015,
        "meta_inclination": 97.8377,
        "meta_ra_of_asc_node": 3.9237,
        "meta_arg_of_pericenter": 77.1928,
        "meta_mean_anomaly": 282.9457,
        "meta_ephemeris_type": 0,
        "meta_classification_type": "U",
        "meta_norad_cat_id": 32289,
        "meta_element_set_no": 999,
        "meta_rev_at_epoch": 97667,
        "meta_bstar": 0.00034548,
        "meta_mean_motion_dot": 3.258e-05,
        "meta_mean_motion_ddot": 0,
        "tle_line1": "1 32289U 07055A   25337.21210590  .00003258  00000+0  34548-3 0  9995",
        "tle_line2": "2 32289  97.8377   3.9237 0001500  77.1928 282.9457 14.89781073976671"
      },
      "geometry": {
        "type": "Point",
        "coordinates": [
          178.94712317530332,
          -33.422846572669606
        ]
      }
    }
  ]
}